[{"OBJECT_NAME":"STARLINK-4388","OBJECT_ID":"2022-105D","EPOCH":"2026-03-09T15:52:02.872704","MEAN_MOTION":15.05648779,"ECCENTRICITY":0.00023933,"INCLINATION":97.6022,"RA_OF_ASC_NODE":311.1928,"ARG_OF_PERICENTER":81.8615,"MEAN_ANOMALY":278.2883,"EPHEMERIS_TYPE":0,"CLASSIFICATION_TYPE":"U","NORAD_CAT_ID":53651,"ELEMENT_SET_NO":999,"REV_AT_EPOCH":19329,"BSTAR":5.6877377e-5,"MEAN_MOTION_DOT":7.6e-6,"MEAN_MOTION_DDOT":0},{"OBJECT_NAME":"H-2A R\/B","OBJECT_ID":"2006-002B","EPOCH":"2026-03-09T22:32:18.942432","MEAN_MOTION":15.16426804,"ECCENTRICITY":0.00518947,"INCLINATION":98.2413,"RA_OF_ASC_NODE":215.9838,"ARG_OF_PERICENTER":240.1322,"MEAN_ANOMALY":119.4746,"EPHEMERIS_TYPE":0,"CLASSIFICATION_TYPE":"U","NORAD_CAT_ID":28932,"ELEMENT_SET_NO":999,"REV_AT_EPOCH":9447,"BSTAR":0.00057792596,"MEAN_MOTION_DOT":0.00011556,"MEAN_MOTION_DDOT":0}]
